[{"OBJECT_NAME":"CELESTIS-17 & SHERPA-FX1","OBJECT_ID":"2021-006CB","EPOCH":"2026-03-09T15:26:05.078112","MEAN_MOTION":15.30994801,"ECCENTRICITY":0.000663,"INCLINATION":97.2397,"RA_OF_ASC_NODE":112.1052,"ARG_OF_PERICENTER":178.1385,"MEAN_ANOMALY":181.9882,"EPHEMERIS_TYPE":0,"CLASSIFICATION_TYPE":"U","NORAD_CAT_ID":47486,"ELEMENT_SET_NO":999,"REV_AT_EPOCH":28406,"BSTAR":0.00024301,"MEAN_MOTION_DOT":7.207e-5,"MEAN_MOTION_DDOT":0},{"OBJECT_NAME":"STARLINK-34795","OBJECT_ID":"2025-212J","EPOCH":"2026-03-09T01:00:34.517952","MEAN_MOTION":15.30176161,"ECCENTRICITY":0.00010795,"INCLINATION":53.1612,"RA_OF_ASC_NODE":348.7369,"ARG_OF_PERICENTER":66.5692,"MEAN_ANOMALY":293.5422,"EPHEMERIS_TYPE":0,"CLASSIFICATION_TYPE":"U","NORAD_CAT_ID":65684,"ELEMENT_SET_NO":999,"REV_AT_EPOCH":2709,"BSTAR":0.0023509301,"MEAN_MOTION_DOT":0.00069873,"MEAN_MOTION_DDOT":0}]
